{
  "type": "Feature",
  "properties": {
    "name": "melbourne-demand-extent",
    "version": "1.1.0"
  },
  "geometry": {
    "type": "Polygon",
    "coordinates": [
      [
        [
          144.52,
          -37.55
        ],
        [
          144.25,
          -37.8
        ],
        [
          144.25,
          -38.26
        ],
        [
          144.45,
          -38.26
        ],
        [
          144.62,
          -38.22
        ],
        [
          144.7,
          -38.28
        ],
        [
          144.87,
          -38.31
        ],
        [
          144.87,
          -38.36
        ],
        [
          145.02,
          -38.42
        ],
        [
          145.26,
          -38.42
        ],
        [
          145.26,
          -38.25
        ],
        [
          145.42,
          -38.16
        ],
        [
          145.55,
          -38.1
        ],
        [
          145.55,
          -37.55
        ],
        [
          144.52,
          -37.55
        ]
      ]
    ]
  }
}